{"data":[{"place_name":"서판교 나비와 원","address_name":"산운로 126","id":"516651|1081581","x":516651,"y":1081581},{"place_name":"서판교 노틸러스/채집된 꿈","address_name":"판교원로 207","id":"J152561081","x":519575,"y":1080070},{"place_name":"서판교 돌정승","id":"J116885733","x":518183,"y":1080384},{"place_name":"판교 백현마을 카페거리","id":"J126115029","x":524801,"y":1079811},{"place_name":"미금 성음교회","address_name":"미금일로90번길 36-9","id":"J149409184","x":524546,"y":1069468},{"place_name":"미금 아름다운교회","address_name":"구미동 78","id":"N33386250","x":526619,"y":1069964},{"place_name":"판교 하늘보기","address_name":"동판교로 92","id":"526094|1080932","x":526094,"y":1080932},{"place_name":"미금 구미도서관","address_name":"구미동 16","id":"N31191372","x":523855,"y":1068414},{"place_name":"미금 생명의노래","address_name":"경기 성남시 분당구 돌마로 86 엘레강스프라자 (구미동)","id":"11019053","x":524652,"y":1069575},{"place_name":"오리 구세군남서울교회","address_name":"경기 용인시 수지구 용구대로2790번길 6 (죽전2동)","id":"23295635","x":524269,"y":1065360},{"place_name":"오리 구미 어린이 공원 놀이터","id":"J151448192","x":526000,"y":1066183},{"place_name":"오리 시그마2","address_name":"구미동 18","id":"N29663305","x":523355,"y":1068096},{"place_name":"오리 꿈의탑 (삼성SDS) 성남우편집중국뒤 오리역 7번출구","address_name":"구미동 159","id":"N34850620","x":523635,"y":1067327},{"place_name":"오리 무지개마을 12단지","address_name":"구미동 212","id":"N33362552","x":526553,"y":1065749},{"place_name":"오리 탄천조각 (글로리아 교회 옆 탄천변)","id":"J123018703","x":525134,"y":1066870},{"place_name":"오리 찔리면 죽을지도 조각","id":"J139629935","x":524506,"y":1066351},{"place_name":"오리 세븐일레븐 오리역점 (오리역3번출구)","address_name":"경기 성남시 분당구 구미동","id":"8016552","x":524190,"y":1066710},{"place_name":"오리 무지개마을 건영3단지 돌","address_name":"경기 성남시 분당구 미금로 63 (구미동)","id":"11336812","x":525395,"y":1066539},{"place_name":"오리 무지개 도서관","address_name":"구미로 111","id":"J147917112","x":526777,"y":1066762},{"place_name":"미금 하얀마을 삼대기둥","address_name":"구미동 112","id":"N31120936","x":525183,"y":1068354},{"place_name":"미금 하늘 더듬이 놀이터","id":"J129471396","x":524856,"y":1070368},{"place_name":"미금 하늘마음교회","address_name":"경기 성남시 분당구 미금로 170 (구미동)","id":"21604974","x":525945,"y":1069236},{"place_name":"미금 비석장군&석등","address_name":"정자동 217","id":"N31778741","x":526796,"y":1070830},{"place_name":"미금 청솔마을 한라 놀이터","address_name":"금곡동 181","id":"N33956339","x":523842,"y":1071428},{"place_name":"미금 대광사","address_name":"경기 성남시 분당구 구미로185번길 30 (구미동)","id":"12888890","x":528278,"y":1068760},{"place_name":"미금 빛","address_name":"금곡동 210","id":"N33457447","x":523327,"y":1069879},{"place_name":"미금 4개의 기둥","address_name":"경기 성남시 분당구 성남대로 165 천사의도시 1차 1층 (금곡동)","id":"26861358","x":524026,"y":1069941},{"place_name":"미금 티월드 미금역점","address_name":"구미동 9-1","id":"N32650388","x":523984,"y":1069456},{"place_name":"미금 티월드 미금2호점","address_name":"금곡동 157","id":"N34478998","x":524259,"y":1069793},{"place_name":"미금 크리스피도넛 분당 미금역점","address_name":"금곡동 154","id":"N29380830","x":524465,"y":1069763},{"place_name":"미금 함께하는 교회","address_name":"구미동 56-3","id":"N33409935","x":524670,"y":1068782},{"place_name":"미금 신원아파트 (Shinwon APT)","address_name":"경기 성남시 분당구 미금일로 58 (구미동)","id":"10496155","x":525063,"y":1069186},{"place_name":"미금 공원분수","id":"J138015542","x":525540,"y":1069136},{"place_name":"미금 분당서울대학교병원 점자안내판","address_name":"경기 성남시 분당구 구미로173번길 82 (구미동)","id":"7905028","x":527293,"y":1070213},{"place_name":"미금 세븐일레븐 분당서울대병원신관점","address_name":"경기 성남시 분당구 구미로173번길 82 2동 지하 1층 (구미동)","id":"940594689","x":527506,"y":1070069},{"place_name":"미금 둔촌선생 정훈","id":"J139341499","x":525899,"y":1070369},{"place_name":"미금 LH조형물","address_name":"경기 성남시 분당구 돌마로 172 (정자동)","id":"26912047","x":526774,"y":1070830},{"place_name":"미금 성시교회","address_name":"경기 성남시 분당구 돌마로 178 (정자3동)","id":"12355287","x":526365,"y":1071038},{"place_name":"서판교 사슴놀이터","address_name":"운중동 307","id":"N30673648","x":513610,"y":1081413},{"place_name":"서판교 대한예수장로회 한빛교회","address_name":"경기 성남시 분당구 석운로 450 (운중동)","id":"13337839","x":514122,"y":1081207},{"place_name":"서판교 Frighten Deer Family/천자문의자","id":"J134362975","x":514763,"y":1081331},{"place_name":"서판교 물빛공원","address_name":"운중동 899","id":"N32084435","x":515431,"y":1081029},{"place_name":"서판교 13단지정자","id":"J121236805","x":515839,"y":1080094},{"place_name":"서판교 판교성김대건안드레아성당","address_name":"경기 성남시 분당구 판교원로82번길 45 (운중동)","id":"18225539","x":516505,"y":1079428},{"place_name":"서판교 운중도서관","address_name":"경기 성남시 분당구 판교원로81번길 9 (운중동)","id":"19532371","x":516603,"y":1080746},{"place_name":"서판교 순복음서울진주초대교회","address_name":"경기 성남시 분당구 판교원로 92 (운중동)","id":"13008598","x":516996,"y":1080509},{"place_name":"서판교 Statue of GemVax Tower","address_name":"경기 성남시 분당구 운중로138번길 7-1 (운중동)","id":"10488942","x":517420,"y":1080988},{"place_name":"서판교 느티나무교","id":"J117211495","x":518247,"y":1080533},{"place_name":"서판교 낙수원","id":"J134447756","x":518847,"y":1079341},{"place_name":"서판교 충만한교회","address_name":"경기 성남시 분당구 판교로25번길 8-8 (운중동)","id":"26272975","x":518741,"y":1080811},{"place_name":"서판교 하모니","address_name":"경기 성남시 분당구 판교로 30 (판교동)","id":"11506046","x":519130,"y":1080644},{"place_name":"서판교 Pangyo Park Welcome Sign","address_name":"경기 성남시 분당구 운중로225번길 14-2 1층 (판교동)","id":"18649094","x":519637,"y":1081046},{"place_name":"서판교 Colorful windmills Farm","address_name":"경기 성남시 분당구 운중로225번길 37 (판교동)","id":"11952443","x":520027,"y":1081372},{"place_name":"서판교 열린하늘문교회","address_name":"경기 성남시 분당구 운중로 250 (판교동)","id":"12602075","x":520016,"y":1080521},{"place_name":"서판교 PanKyoWon Eco-Park","address_name":"경기 성남시 분당구 서판교로 29 판교원마을 주상가동 101호 (판교동)","id":"16395340","x":521540,"y":1080611},{"place_name":"서판교 은혜선교교회","id":"J128310467","x":521956,"y":1080798},{"place_name":"서판교 타일벽화","id":"J126976542","x":522013,"y":1080945},{"place_name":"서판교 꿈꾸는 교회","address_name":"경기 성남시 분당구 서판교로 65 (판교동)","id":"8818406","x":521671,"y":1081518},{"place_name":"서판교 링터널","address_name":"판교동 546-12","id":"N31802384","x":521963,"y":1082237},{"place_name":"서판교 성프란치스코성당","address_name":"판교동 513-1","id":"N32366512","x":521387,"y":1082857},{"place_name":"서판교 판교박물관","address_name":"판교동 499","id":"N31567338","x":521150,"y":1083825},{"place_name":"판교 초아의 봉사","id":"J150608155","x":525239,"y":1079267},{"place_name":"판교 롯데리아 DT","address_name":"경기 성남시 분당구 동판교로 42 (백현동)","id":"13057557","x":525100,"y":1080137},{"place_name":"판교 세븐일레븐 로제비앙","address_name":"백현동 552","id":"N37264587","x":525386,"y":1080274},{"place_name":"판교 그린트리","address_name":"동판교로 153","id":"J147715244","x":525541,"y":1082287},{"place_name":"판교 지브라 게이트","id":"J138656548","x":525819,"y":1082804},{"place_name":"판교 한신교회","address_name":"경기 성남시 분당구 동판교로177번길 17 (삼평동)","id":"12681849","x":525503,"y":1082959},{"place_name":"판교 아브뉴프랑 입구조형물","address_name":"동판교로177번길 25","id":"J149852368","x":525132,"y":1082775},{"place_name":"판교 판교역 (1층/지하)","id":"J125680755","x":524633,"y":1082108},{"place_name":"판교 꿈꾸는 정원","address_name":"경기 성남시 분당구 판교역로146번길 20 (백현동)","id":"1513134482","x":524736,"y":1081363},{"place_name":"판교 분수대","id":"J117129154","x":524617,"y":1080919},{"place_name":"판교 웰컴맨 (SK허브)","address_name":"경기 성남시 분당구 판교역로 109 (백현동)","id":"17810518","x":524074,"y":1081109},{"place_name":"판교 알파리움 세븐일레븐","address_name":"경기 성남시 분당구 대왕판교로606번길 10 (백현동)","id":"20256972","x":523951,"y":1082278},{"place_name":"판교 낙생대 공원","id":"J119383960","x":523369,"y":1081548},{"place_name":"판교 화랑공원 입구","id":"J136001150","x":523633,"y":1082791},{"place_name":"판교 판교티월드","id":"J121121080","x":524610,"y":1082625},{"place_name":"판교 금속 꽃다발","address_name":"대왕판교로645번길 12","id":"J150114351","x":523113,"y":1083685},{"place_name":"판교 지렁이 파이프","address_name":"판교로228번길 51","id":"J147391836","x":522680,"y":1083199},{"place_name":"판교 형","address_name":"판교로256번길 25","id":"J146704901","x":522829,"y":1083639},{"place_name":"판교 꿈","address_name":"판교로228번길 15","id":"J153090993","x":522411,"y":1083953},{"place_name":"판교 얼굴벽화","id":"J130668815","x":522610,"y":1083976},{"place_name":"판교 빛나래 공원","id":"J139940554","x":521829,"y":1084955},{"place_name":"판교 미스테리 서클","address_name":"판교로 344","id":"J148521717","x":524830,"y":1084195},{"place_name":"판교 한컴위 (Alien key)","address_name":"경기 성남시 분당구 대왕판교로644번길 49 코리아벤처타운 B203호 (삼평동)","id":"27166167","x":524810,"y":1083791},{"place_name":"판교 한컴위 (Sun Worshipper)","address_name":"삼평동 676","id":"N31026887","x":524835,"y":1083741},{"place_name":"판교 한컴타워 남녀","address_name":"경기 성남시 분당구 대왕판교로644번길 49 (삼평동)","id":"16032600","x":524888,"y":1083684},{"place_name":"판교 테크노밸리 티월드","address_name":"판교역로 235","id":"J153906256","x":524049,"y":1084101},{"place_name":"판교 유스페이스 튤립","address_name":"삼평동 670","id":"N29498036","x":523644,"y":1083656},{"place_name":"판교 유스페이스 말","id":"J119549978","x":523781,"y":1083970},{"place_name":"판교 세븐일레븐 판교유스페이스점","address_name":"삼평동 682","id":"N33932520","x":523488,"y":1084103},{"place_name":"판교 달팽이공원","id":"J132321025","x":523909,"y":1084735},{"place_name":"판교 디테라스 세븐일레븐","address_name":"판교로319번길 13","id":"J145776906","x":524145,"y":1084550},{"place_name":"수내 문화의각인","address_name":"경기 성남시 분당구 수내동","id":"17491822","x":525400,"y":1077662},{"place_name":"분당동 Samsung Church","address_name":"불정로 402","id":"J153416687","x":530770,"y":1076702},{"place_name":"서현 이매촌 한신아파트 놀이터","address_name":"양현로94번길 28","id":"J147513013","x":528123,"y":1080696},{"place_name":"서현 종탑","id":"J124831932","x":529524,"y":1078866},{"place_name":"수내 파크타운 표지석","address_name":"내정로 186","id":"J154232286","x":526989,"y":1076299},{"place_name":"분당동 샛별 택지개발 기념비","id":"J142057184","x":528736,"y":1075823},{"place_name":"분당동 New Star Town Stone","id":"J135656279","x":529277,"y":1076290},{"place_name":"수내 신해철상","address_name":"경기 성남시 분당구 수내동 125-3","id":"1441227137","x":528109,"y":1074025},{"place_name":"수내 푸른마을단지비석","address_name":"경기 성남시 분당구 돌마로356번길 3 그랜드프라자 103호 (수내동)","id":"16305530","x":527282,"y":1075183},{"place_name":"정자 성광교회","address_name":"경기 성남시 분당구 느티로 70 (정자동)","id":"11324846","x":524644,"y":1074538},{"place_name":"정자 Guitar Playground","id":"525933|1074231","x":525933,"y":1074231},{"place_name":"정자 모녀의 나들이","address_name":"내정로17번길 8","id":"J150740324","x":525262,"y":1072956},{"place_name":"수내 분당충만교회","address_name":"정자동 45-3","id":"N34573948","x":525315,"y":1075982},{"place_name":"정자 물고기 상","address_name":"불곡남로22번길 8","id":"J146987309","x":527280,"y":1071835},{"place_name":"정자 골든 스테츄","id":"J119556898","x":523963,"y":1076269},{"place_name":"분당동 Moniment to 3.1 Movement","address_name":"경기 성남시 분당구 율동 399","id":"12455726","x":533681,"y":1077550},{"place_name":"분당동 범선 놀이터","address_name":"경기 성남시 분당구 율동 311","id":"1800186462","x":533167,"y":1078595},{"place_name":"분당동 분당소망교회","address_name":"경기 성남시 분당구 서현로439번길 1 (분당동)","id":"10354391","x":532185,"y":1076371},{"place_name":"분당동 Don’t hurt animal","id":"J129933493","x":532741,"y":1077903},{"place_name":"분당동 Quoting 66","address_name":"경기 성남시 분당구 문정로 145 (율동)","id":"11917359","x":532757,"y":1077520},{"place_name":"분당동 Get Angry by 안치홍","address_name":"경기 성남시 분당구 율동 426-2","id":"17557720","x":532699,"y":1077326},{"place_name":"분당동 율동공원 시계탑","address_name":"경기 성남시 분당구 율동 452","id":"17560383","x":532898,"y":1077261},{"place_name":"분당동 천주교 분당 성요한성당","id":"J116897464","x":532826,"y":1075057},{"place_name":"분당동 분당동안내도","id":"J135340837","x":531817,"y":1075063},{"place_name":"분당동 세븐일레븐 분당4호점","address_name":"서현로429번길 3","id":"J145493366","x":531943,"y":1076463},{"place_name":"서현 분당남부교회","id":"J139311876","x":530904,"y":1075994},{"place_name":"서현 별과 비행접시","id":"J144027056","x":531133,"y":1075895},{"place_name":"서현 한신교회","address_name":"불정로 380","id":"J151789535","x":530302,"y":1076309},{"place_name":"서현 효자 유치원","address_name":"돌마로476번길 17","id":"J144807561","x":529785,"y":1076877},{"place_name":"분당동 분당평강교회","address_name":"분당로 190","id":"J150296279","x":528819,"y":1076218},{"place_name":"서현 효자촌 먹자골목","id":"J134846023","x":530301,"y":1077853},{"place_name":"서현 볕고개안 통로골","id":"J126777012","x":528753,"y":1079326},{"place_name":"서현 올림픽 성화","address_name":"중앙공원로40번길 4","id":"J153416691","x":528662,"y":1078078},{"place_name":"서현 올림픽센터 조형물","address_name":"중앙공원로 35","id":"J150942228","x":528512,"y":1078246},{"place_name":"서현 동네 정자","address_name":"경기 성남시 분당구 수내동 66","id":"1796611725","x":528569,"y":1076602},{"place_name":"서현 중앙공원 호수 분수","address_name":"경기 성남시 분당구 수내동 66","id":"11851402","x":527824,"y":1076058},{"place_name":"서현 중앙공원한산이씨문화유적","address_name":"경기 성남시 분당구 수내동 65","id":"8141136","x":527669,"y":1076941},{"place_name":"서현 이증 신도비와 한산이씨 삼세유사비","address_name":"경기 성남시 분당구 수내동 70","id":"1717162118","x":527208,"y":1076714},{"place_name":"서현 분당구청 Bundang Goochung Sculpture","address_name":"분당로 50","id":"J147836588","x":526374,"y":1078737},{"place_name":"서현 큰 조각상","address_name":"분당로 55","id":"J146301406","x":526936,"y":1078771},{"place_name":"서현 세븐일레븐 분당퍼스트점","address_name":"분당로 55","id":"J150901896","x":526862,"y":1078853},{"place_name":"서현 Peace in Family","address_name":"분당로53번길 3","id":"J145695735","x":526764,"y":1078967},{"place_name":"서현 대화(나우병원)","address_name":"분당로 43","id":"J154395591","x":526638,"y":1079107},{"place_name":"서현 서현역 앞 분수대","address_name":"황새울로360번길 43","id":"J154640642","x":527463,"y":1079214},{"place_name":"서현 AK플라자 서현역","address_name":"황새울로360번길 42","id":"J152846290","x":527309,"y":1079384},{"place_name":"서현 티월드 분당지점","address_name":"황새울로 326","id":"J152193833","x":526988,"y":1079401},{"place_name":"서현 티월드 서현역AK점","address_name":"성남대로 지하 601","id":"J145452765","x":527594,"y":1079615},{"place_name":"서현 티월드 분당서현직영본점","address_name":"황새울로360번길 21","id":"J145129551","x":527831,"y":1079565},{"place_name":"서현 서현교 인공폭포","id":"J144875692","x":526562,"y":1080139},{"place_name":"서현 세븐일레븐 제생병원점","address_name":"서현로180번길 20","id":"J148319850","x":526926,"y":1080238},{"place_name":"서현 엔제리너스 서현점","address_name":"황새울로342번길 23","id":"J152846288","x":527586,"y":1079897},{"place_name":"서현 타피오카 분수","id":"J144097986","x":527818,"y":1080727},{"place_name":"정자 능골 공원 정자","address_name":"경기 성남시 분당구 정자동 103","id":"17558087","x":525756,"y":1075313},{"place_name":"정자 주택공원안내도","address_name":"정자동 253","id":"N34811216","x":524919,"y":1071765},{"place_name":"정자 전원마을","id":"J123082556","x":527345,"y":1071858},{"place_name":"정자 새장","address_name":"정자동 206","id":"N33125032","x":525456,"y":1072093},{"place_name":"정자 계원예술고등학교 문구","address_name":"정자동 207","id":"N32014065","x":525582,"y":1071976},{"place_name":"정자 샘물교회","address_name":"정자동 127-6","id":"N31159674","x":525353,"y":1073023},{"place_name":"정자 한솔마을 입구","id":"J122484539","x":526358,"y":1073399},{"place_name":"정자 느티마을 어린이공원","id":"J143947714","x":524474,"y":1074139},{"place_name":"정자 세븐일레븐 정자점","address_name":"정자동 65-6","id":"N35143807","x":525018,"y":1074867},{"place_name":"정자 블루스앨리","id":"J138022838","x":525203,"y":1074923},{"place_name":"정자 트위스트필라","id":"J125109012","x":525847,"y":1075302},{"place_name":"정자 비상","id":"J141162054","x":523526,"y":1072403},{"place_name":"정자 밀레니엄타임","address_name":"정자동 169-1","id":"N33267630","x":523834,"y":1072676},{"place_name":"정자 개벽","address_name":"정자동 158-3","id":"N34360577","x":523645,"y":1073837},{"place_name":"정자 정자역 분수량 열주","address_name":"정자동 26","id":"N30626574","x":523773,"y":1074245},{"place_name":"정자 티월드 정자점","address_name":"정자동 16-2","id":"N34051461","x":523368,"y":1074656},{"place_name":"정자 가족 by 한진섭","address_name":"정자동 17-2","id":"N29828032","x":523751,"y":1074687},{"place_name":"정자 디스토션","id":"J130147126","x":523691,"y":1075194},{"place_name":"정자 아이파크 스퀘어 포털","id":"J117298105","x":523507,"y":1075881},{"place_name":"정자 군상","address_name":"경기 성남시 분당구 정자일로 248 (정자동)","id":"8578797","x":523734,"y":1076587},{"place_name":"정자 꼬치감자","address_name":"정자동 6","id":"N33932521","x":523851,"y":1076778},{"place_name":"수내 꿈과사랑의교회","address_name":"수내동 99","id":"N29945394","x":527638,"y":1073712},{"place_name":"분당동 불곡산 법기사 문화원","id":"J127338737","x":530661,"y":1074596},{"place_name":"수내 새벽월드평화센터","id":"J141551838","x":525176,"y":1078940},{"place_name":"수내 곰세마리","id":"J144997508","x":526901,"y":1075784},{"place_name":"수내 더볼","id":"J139642248","x":524474,"y":1076802},{"place_name":"수내 정자아이파크","address_name":"정자동 27","id":"N29781383","x":524438,"y":1076922},{"place_name":"수내 세븐일레븐 분당초림점","address_name":"경기 성남시 분당구 내정로165번길 50 (수내동)","id":"18112598","x":525562,"y":1077164},{"place_name":"수내 꽃이피다","address_name":"경기 성남시 분당구 황새울로258번길 19 (수내동)","id":"10941658","x":526021,"y":1077919},{"place_name":"수내 수호천사","id":"J140227709","x":525720,"y":1077925},{"place_name":"수내 SKT분당사옥","address_name":"황새울로258번길 6","id":"J149529804","x":525646,"y":1078165}]}